SL-16 R/B               
1 22566U 93016B   25359.49788294  .00000281  00000+0  16877-3 0  9997
2 22566  71.0084  11.0073 0008044  72.2662 287.9338 14.15292962691676
COSMOS 2242             
1 22626U 93024A   25359.94504869  .00002442  00000+0  21417-3 0  9994
2 22626  82.5196 337.2219 0015984 187.1214 172.9783 14.96159546769367
SL-16 R/B               
1 22803U 93059B   25359.93095911  .00000304  00000+0  17418-3 0  9992
2 22803  70.9885 166.6689 0018606 317.0496  42.9173 14.17216397669083
ARIANE 40 R/B           
1 22830U 93061H   25359.81675336  .00000278  00000+0  11788-3 0  9991
2 22830  98.5059  65.1078 0011544 139.1054 221.0998 14.32810024683528
COSMOS 2278             
1 23087U 94023A   25359.62005558  .00000079  00000+0  66151-4 0  9991
2 23087  71.0534 330.0621 0007785 156.4486 203.6995 14.14348579634337
SL-16 R/B               
1 23088U 94023B   25359.91229112 -.00000231  00000+0 -94451-4 0  9994
2 23088  70.9976 225.8239 0002101   2.8487 357.2647 14.14999358635657
SL-16 R/B               
1 23343U 94074B   25359.67208442  .00000493  00000+0  72915-4 0  9999
2 23343  97.7189  28.4619 0008044 100.5123  14.6614 14.79303842676301
SL-16 R/B               
1 23405U 94077B   25359.85202021 -.00000202  00000+0 -78941-4 0  9993
2 23405  70.9822 147.8288 0005046 274.6288  85.4258 14.15552036605784
ARIANE 40+ R/B          
1 23561U 95021B   25359.81204080  .00000329  00000+0  11889-3 0  9994
2 23561  98.4635  67.2424 0006785  13.3378  97.7031 14.39705213608613
SL-16 R/B               
1 23705U 95058B   25359.92603639 -.00000135  00000+0 -44483-4 0  9993
2 23705  71.0217 335.1192 0014601 237.8948 122.0758 14.15481350557413
SL-16 R/B               
1 24298U 96051B   25359.94482298 -.00000011  00000+0  20631-4 0  9994
2 24298  70.7595 331.3320 0019485 245.1501 114.7593 14.12397652511232
ORBVIEW 2 (SEASTAR)     
1 24883U 97037A   25359.88054708  .00000299  00000+0  12026-3 0  9998
2 24883  98.8463 157.2863 0001217 282.8017  77.3031 14.35426107497886
